BEIDOU 3 (C01)          
1 36287U 10001A   21301.60257509 -.00000272  00000-0  00000-0 0  9991
2 36287   1.6995  42.2315 0002380  80.9481 271.3828  1.00275638 43187
BEIDOU 5 (C06)          
1 36828U 10036A   21301.36850771 -.00000105  00000-0  00000-0 0  9998
2 36828  54.1796 178.3660 0023154 177.2798 280.7431  1.00264999 41255
BEIDOU 6 (C04)          
1 37210U 10057A   21301.44731074 -.00000104  00000-0  00000-0 0  9999
2 37210   0.7669  40.3810 0004462 152.3964 165.2961  1.00272982 40303
BEIDOU 7 (C07)          
1 37256U 10068A   21301.23726238 -.00000174  00000-0  00000-0 0  9991
2 37256  50.6280 292.4185 0017528 190.6885 107.6602  1.00266592 39811
BEIDOU 8 (C08)          
1 37384U 11013A   21300.67116109 -.00000166  00000-0  00000-0 0  9992
2 37384  59.9620  56.5779 0019416 183.4187 143.9986  1.00271079 38682
BEIDOU 9 (C09)          
1 37763U 11038A   21301.51459361 -.00000066  00000-0  00000-0 0  9993
2 37763  54.4663 180.8282 0086181 226.2202 270.2925  1.00282802 37678
BEIDOU 10 (C10)         
1 37948U 11073A   21301.43510021 -.00000123  00000-0  00000-0 0  9993
2 37948  50.7376 292.0398 0078579 218.2383 138.5821  1.00263069 36427
BEIDOU 11 (C05)         
1 38091U 12008A   21301.57110962  .00000065  00000-0  00000-0 0  9991
2 38091   1.8405  70.7019 0002874 283.8273 306.9716  1.00270093 35506
BEIDOU 12 (C11)         
1 38250U 12018A   21301.28393766 -.00000084  00000-0  00000-0 0  9994
2 38250  56.7432   1.2285 0023984 246.4514 184.6669  1.86234283 64767
BEIDOU 13 (C12)         
1 38251U 12018B   21301.11439889 -.00000085  00000-0  00000-0 0  9995
2 38251  56.6624   0.5749 0014908 246.3906 115.3833  1.86234061 64765
BEIDOU 15 (C14)         
1 38775U 12050B   21301.12326340  .00000071  00000-0  00000-0 0  9994
2 38775  55.2707 119.5102 0011961 329.7791 235.1087  1.86231263 62133
BEIDOU 16 (C02)         
1 38953U 12059A   21301.57608105 -.00000167  00000-0  00000-0 0  9999
2 38953   1.4150  84.2647 0009562 276.4881 327.8194  1.00269520 33072
BEIDOU 17 (C31)         
1 40549U 15019A   21301.50648093 -.00000138  00000-0  00000-0 0  9993
2 40549  52.2802 315.4484 0037945 190.2089 167.6854  1.00292642 24109
BEIDOU 18 (C57)         
1 40748U 15037A   21301.26458735 -.00000084  00000-0  00000-0 0  9999
2 40748  55.9216 359.5776 0001244 339.2653  32.9628  1.86233370 42590
BEIDOU 19 (C58)         
1 40749U 15037B   21301.58288406 -.00000082  00000-0  00000-0 0  9999
2 40749  55.9245 359.5554 0004193 288.2250  72.9041  1.86232063 42590
BEIDOU 20 (C18)         
1 40938U 15053A   21301.41659949 -.00000097  00000-0  00000-0 0  9999
2 40938  51.8648 278.5388 0047600 196.2926 165.0867  1.00254220 22385
BEIDOU IGSO-6 (C13)     
1 41434U 16021A   21301.23944178 -.00000141  00000-0  00000-0 0  9998
2 41434  57.7633  55.2553 0044210 211.5436 311.1330  1.00286952 20509
BEIDOU-2 G7 (C03)       
1 41586U 16037A   21301.43780397 -.00000346  00000-0  00000-0 0  9993
2 41586   1.9848  69.5363 0007364   8.3826 227.2455  1.00268371 19819
BEIDOU-3 M1 (C19)       
1 43001U 17069A   21300.59366638  .00000065  00000-0  00000-0 0  9994
2 43001  55.4245 119.4975 0007189 291.8178  74.0614  1.86231740 27061
BEIDOU-3 M2 (C20)       
1 43002U 17069B   21301.59411617  .00000077  00000-0  00000-0 0  9997
2 43002  55.4252 119.4996 0006000 324.4212  35.4900  1.86231346 27067
BEIDOU-3 M3 (C27)       
1 43107U 18003A   21301.36166964 -.00000085  00000-0  00000-0 0  9999
2 43107  55.3661   0.5950 0003452  59.5962 310.4080  1.86232489 25839
BEIDOU-3 M4 (C28)       
1 43108U 18003B   21301.28834861 -.00000086  00000-0  00000-0 0  9990
2 43108  55.3609   0.5873 0004172 235.8631 130.1622  1.86232467 25833
BEIDOU-3 M5 (C21)       
1 43207U 18018A   21300.11569830  .00000060  00000-0  00000-0 0  9999
2 43207  55.3830 119.6364 0004548   3.5808 356.4613  1.86231591 25198
BEIDOU-3 M6 (C22)       
1 43208U 18018B   21299.10852772  .00000048  00000-0  00000-0 0  9992
2 43208  55.3826 119.6743 0005378 309.3533  50.6370  1.86231578 25175
BEIDOU-3 M7 (C29)       
1 43245U 18029A   21301.21299075 -.00000084  00000-0  00000-0 0  9993
2 43245  55.2919 358.3847 0001135 214.9060 325.6951  1.86232586 24368
BEIDOU-3 M8 (C30)       
1 43246U 18029B   21301.41368920 -.00000083  00000-0  10000-3 0  9995
2 43246  55.2891 358.4075 0003093 339.7223  21.7682  1.86232959 24363
BEIDOU IGSO-7 (C16)     
1 43539U 18057A   21301.58175023 -.00000113  00000-0  00000+0 0  9998
2 43539  55.0615 177.7665 0040493 222.7570 319.3199  1.00281309 12183
BEIDOU-3 M9 (C23)       
1 43581U 18062A   21301.26871942 -.00000002  00000-0  00000-0 0  9997
2 43581  54.3535 240.0406 0005483 281.6761 192.9853  1.86231854 22105
BEIDOU-3 M10 (C24)      
1 43582U 18062B   21301.22608278 -.00000001  00000-0  00000-0 0  9993
2 43582  54.3533 240.0316 0005878 342.5661 195.0098  1.86232318 22109
BEIDOU-3 M11 (C25)      
1 43602U 18067A   21301.16646707 -.00000002  00000-0  00000-0 0  9994
2 43602  54.4321 238.6278 0007304 356.0772 183.4518  1.86231517 21597
BEIDOU-3 M12 (C26)      
1 43603U 18067B   21301.10404356 -.00000001  00000-0  00000-0 0  9990
2 43603  54.4290 238.5975 0004683 342.0635  66.0421  1.86231448 21611
BEIDOU-3 M13 (C32)      
1 43622U 18072A   21301.51270491  .00000076  00000-0  00000+0 0  9993
2 43622  55.3495 119.1522 0003975 286.1665  65.8861  1.86231723 21122
BEIDOU-3 M14 (C33)      
1 43623U 18072B   21301.14693757  .00000072  00000-0  00000+0 0  9993
2 43623  55.3521 119.1560 0002697 338.7195 218.3373  1.86231743 21122
BEIDOU-3 M15 (C34)      
1 43647U 18078A   21301.53868916 -.00000083  00000-0  10000-3 0  9997
2 43647  55.1858 358.5510 0005295 351.1848   3.7583  1.86232785 20635
BEIDOU-3 M16 (C35)      
1 43648U 18078B   21301.29908450 -.00000084  00000-0  00000-0 0  9996
2 43648  55.1827 358.5657 0003138   1.8253 100.6945  1.86232271 20658
BEIDOU-3 G1 (C59)       
1 43683U 18085A   21301.39702351 -.00000271  00000-0  00000-0 0  9994
2 43683   0.8904 208.4748 0004993  37.2744  74.2285  1.00270634 11083
BEIDOU-3 M17 (C36)      
1 43706U 18093A   21300.76208073  .00000001  00000-0  00000-0 0  9991
2 43706  54.4349 239.9275 0010428 277.9678  81.9180  1.86231969 20003
BEIDOU-3 M18 (C37)      
1 43707U 18093B   21301.15835688 -.00000001  00000-0  00000-0 0  9995
2 43707  54.4358 239.9041 0009635 297.9118  58.6448  1.86232174 19997
BEIDOU-3 IGSO-1 (C38)   
1 44204U 19023A   21301.58024748 -.00000202  00000-0  00000+0 0  9998
2 44204  56.2173  55.4761 0023181 187.2276 122.3630  1.00281004  9389
BEIDOU-2 G8             
1 44231U 19027A   21301.62650663 -.00000240  00000-0  00000-0 0  9991
2 44231   0.3551  47.9851 0007539 157.2686 202.0651  1.00272097  9107
BEIDOU-3 IGSO-2 (C39)   
1 44337U 19035A   21301.57827527 -.00000111  00000-0  00000-0 0  9993
2 44337  55.0977 173.7995 0020350 179.4710  11.6722  1.00271802  8723
BEIDOU-3 M23 (C45)      
1 44542U 19061A   21300.39471845  .00000003  00000-0  10000-3 0  9990
2 44542  54.6634 240.0392 0009371 330.1322 187.0498  1.86229997 14244
BEIDOU-3 M24 (C46)      
1 44543U 19061B   21301.10882633 -.00000000  00000-0  10000-3 0  9990
2 44543  54.6576 239.9812 0006583 317.8264 229.1591  1.86231875 14254
BEIDOU-3 IGSO-3         
1 44709U 19073A   21301.63118840 -.00000146  00000-0  00000-0 0  9994
2 44709  57.6356 298.7829 0019821 187.1495 258.5939  1.00277003  7489
BEIDOU-3 M21            
1 44793U 19078A   21301.19399431 -.00000085  00000-0  10000-3 0  9996
2 44793  55.0359 358.6124 0005144 359.3322  78.7667  1.86232270 13125
BEIDOU-3 M22            
1 44794U 19078B   21301.22366949 -.00000085  00000-0  00000-0 0  9995
2 44794  55.0097 358.6082 0003167 353.8868  15.3355  1.86232747 13125
BEIDOU-3 M19            
1 44864U 19090A   21301.15587191  .00000072  00000-0  00000-0 0  9998
2 44864  55.2851 119.3870 0014179 265.0209 253.3384  1.86231866 12708
BEIDOU-3 M20            
1 44865U 19090B   21301.06814830  .00000071  00000-0  00000-0 0  9991
2 44865  55.2867 119.4223 0012511 281.5785 267.8660  1.86231814 12675
BEIDOU-3 G2             
1 45344U 20017A   21301.43178591 -.00000137  00000-0  00000-0 0  9997
2 45344   2.2741 341.5724 0002381 190.6172 100.3215  1.00272888  6288
BEIDOU-3 G3             
1 45807U 20040A   21301.58140135 -.00000350  00000-0  00000-0 0  9993
2 45807   1.9793 299.2954 0010373 339.1126  78.6246  1.00272025  5113
